[{"OBJECT_NAME":"JILIN-1 GAOFEN 2F","OBJECT_ID":"2021-097A","EPOCH":"2026-03-09T22:15:16.366464","MEAN_MOTION":15.06938169,"ECCENTRICITY":0.00186372,"INCLINATION":97.6538,"RA_OF_ASC_NODE":195.5232,"ARG_OF_PERICENTER":201.1609,"MEAN_ANOMALY":158.885,"EPHEMERIS_TYPE":0,"CLASSIFICATION_TYPE":"U","NORAD_CAT_ID":49338,"ELEMENT_SET_NO":999,"REV_AT_EPOCH":24136,"BSTAR":0.0003789548,"MEAN_MOTION_DOT":5.624e-5,"MEAN_MOTION_DDOT":0},{"OBJECT_NAME":"STARLINK-34980","OBJECT_ID":"2025-179Z","EPOCH":"2026-03-09T15:54:22.888224","MEAN_MOTION":15.05645298,"ECCENTRICITY":0.0002258,"INCLINATION":97.6034,"RA_OF_ASC_NODE":112.9269,"ARG_OF_PERICENTER":106.0664,"MEAN_ANOMALY":254.0812,"EPHEMERIS_TYPE":0,"CLASSIFICATION_TYPE":"U","NORAD_CAT_ID":65258,"ELEMENT_SET_NO":999,"REV_AT_EPOCH":3181,"BSTAR":-0.0002028248,"MEAN_MOTION_DOT":-2.986e-5,"MEAN_MOTION_DDOT":0}]
